NORAD_CAT_ID,OBJECT_NAME,OBJECT_TYPE,EPOCH,MEAN_MOTION,ECCENTRICITY,INCLINATION,RA_OF_ASC_NODE,ARG_OF_PERICENTER,MEAN_ANOMALY,BSTAR,MEAN_MOTION_DOT,MEAN_MOTION_DDOT,TLE_LINE0,TLE_LINE1,TLE_LINE2,SEMIMAJOR_AXIS,PERIOD,APOGEE,PERIGEE,DECAYED
52461.0,STARLINK-3900,PAYLOAD,2023-02-08 10:52:34,15.08854324,0.0001493,53.2176,60.5036,123.6405,236.473,5.2843e-05,5.53e-06,0.0,0 STARLINK-3900,1 52461U 22049L   23039.45317809  .00000553  00000-0  52843-4 0  9998,2 52461  53.2176  60.5036 0001493 123.6405 236.4730 15.08854324 42676,6917.837,95.437,540.734,538.669,0.0
52461.0,STARLINK-3900,PAYLOAD,2023-02-09 05:57:13,15.08835905,0.0001417,53.2168,56.9389,88.4882,271.6272,1.3547e-05,-7.2e-07,0.0,0 STARLINK-3900,1 52461U 22049L   23040.24807288 -.00000072  00000-0  13547-4 0  9997,2 52461  53.2168  56.9389 0001417  88.4882 271.6272 15.08835905 42799,6917.893,95.438,540.738,538.778,0.0
52461.0,STARLINK-3900,PAYLOAD,2023-02-10 12:09:32,15.08860324,0.0001242,53.2171,51.2871,74.322,285.7909,0.00072844,0.00011331,0.0,0 STARLINK-3900,1 52461U 22049L   23041.50662917  .00011331  00000-0  72844-3 0  9998,2 52461  53.2171  51.2871 0001242  74.3220 285.7909 15.08860324 42980,6917.818,95.436,540.542,538.824,0.0
52461.0,STARLINK-3900,PAYLOAD,2023-02-11 05:38:47,15.0885828,0.000133,53.216,48.0162,90.963,269.1515,0.00090756,0.00014193,0.0,0 STARLINK-3900,1 52461U 22049L   23042.23527046  .00014193  00000-0  90756-3 0  9993,2 52461  53.2160  48.0162 0001330  90.9630 269.1515 15.08858280 43092,6917.825,95.436,540.61,538.769,0.0
52461.0,STARLINK-3900,PAYLOAD,2023-02-11 12:00:19,15.0888339,0.0001202,53.2175,46.8278,84.9554,275.1576,0.0021147,0.00033568,0.0,0 STARLINK-3900,1 52461U 22049L   23042.50022440  .00033568  00000-0  21147-2 0  9995,2 52461  53.2175  46.8278 0001202  84.9554 275.1576 15.08883390 43137,6917.748,95.435,540.444,538.781,0.0
52461.0,STARLINK-3900,PAYLOAD,2023-02-11 16:46:29,15.08831615,0.0001196,53.2175,45.9351,120.0505,240.0606,0.00011416,1.529e-05,0.0,0 STARLINK-3900,1 52461U 22049L   23042.69894986  .00001529  00000-0  11416-3 0  9998,2 52461  53.2175  45.9351 0001196 120.0505 240.0606 15.08831615 43160,6917.906,95.438,540.598,538.944,0.0
52461.0,STARLINK-3900,PAYLOAD,2023-02-12 08:40:20,15.08862836,0.0001238,53.2174,42.9616,108.5966,251.5161,0.0022853,0.00036293,0.0,0 STARLINK-3900,1 52461U 22049L   23043.36134869  .00036293  00000-0  22853-2 0  9992,2 52461  53.2174  42.9616 0001238 108.5966 251.5161 15.08862836 43262,6917.811,95.436,540.532,538.819,0.0
52461.0,STARLINK-3900,PAYLOAD,2023-02-12 10:15:43,15.08867461,0.0001247,53.2174,42.6643,109.8739,250.2388,0.0024716,0.00039297,0.0,0 STARLINK-3900,1 52461U 22049L   23043.42758784  .00039297  00000-0  24716-2 0  9994,2 52461  53.2174  42.6643 0001247 109.8739 250.2388 15.08867461 43111,6917.796,95.436,540.524,538.799,0.0
52461.0,STARLINK-3900,PAYLOAD,2023-02-12 22:58:49,15.0884963,0.000199,53.2174,40.2835,99.7375,260.3842,0.0015718,0.00024823,0.0,0 STARLINK-3900,1 52461U 22049L   23043.95751599  .00024823  00000-0  15718-2 0  9990,2 52461  53.2174  40.2835 0001990  99.7375 260.3842 15.08849630 43357,6917.851,95.437,541.093,538.339,0.0
52461.0,STARLINK-3900,PAYLOAD,2023-02-13 08:31:08,15.08846948,0.0001023,53.2165,38.5006,109.2426,250.8677,0.0013324,0.00020985,0.0,0 STARLINK-3900,1 52461U 22049L   23044.35495582  .00020985  00000-0  13324-2 0  9998,2 52461  53.2165  38.5006 0001023 109.2426 250.8677 15.08846948 43414,6917.859,95.437,540.432,539.016,0.0
52461.0,STARLINK-3900,PAYLOAD,2023-02-13 16:28:04,15.08828176,0.0001901,53.2166,37.0157,90.8557,269.2653,0.00097486,0.00015256,0.0,0 STARLINK-3900,1 52461U 22049L   23044.68616227  .00015256  00000-0  97486-3 0  9992,2 52461  53.2166  37.0157 0001901  90.8557 269.2653 15.08828176 43467,6917.917,95.438,541.097,538.466,0.0
52461.0,STARLINK-3900,PAYLOAD,2023-02-14 00:25:00,15.08845428,0.0001752,53.218,35.528,86.5349,273.5844,0.0014254,0.00022473,0.0,0 STARLINK-3900,1 52461U 22049L   23045.01736387  .00022473  00000-0  14254-2 0  9990,2 52461  53.2180  35.5280 0001752  86.5349 273.5844 15.08845428 43355,6917.864,95.437,540.941,538.517,0.0
52461.0,STARLINK-3900,PAYLOAD,2023-02-15 06:37:19,15.08851721,0.0001501,53.2167,29.8774,80.9885,279.1277,0.00072455,0.00011266,0.0,0 STARLINK-3900,1 52461U 22049L   23046.27592454  .00011266  00000-0  72455-3 0  9990,2 52461  53.2167  29.8774 0001501  80.9885 279.1277 15.08851721 43703,6917.845,95.437,540.748,538.671,0.0
52461.0,STARLINK-3900,PAYLOAD,2023-02-15 11:23:28,15.08867663,0.000146,53.2167,28.9856,79.9376,280.1781,0.0011467,0.00018023,0.0,0 STARLINK-3900,1 52461U 22049L   23046.47464039  .00018023  00000-0  11467-2 0  9992,2 52461  53.2167  28.9856 0001460  79.9376 280.1781 15.08867663 43570,6917.796,95.436,540.671,538.651,0.0
52461.0,STARLINK-3900,PAYLOAD,2023-02-15 22:31:11,15.08850439,0.0001463,53.2167,26.9047,86.437,273.6789,0.00044982,6.88e-05,0.0,0 STARLINK-3900,1 52461U 22049L   23046.93832283  .00006880  00000-0  44982-3 0  9990,2 52461  53.2167  26.9047 0001463  86.4370 273.6789 15.08850439 43804,6917.848,95.437,540.726,538.701,0.0
52461.0,STARLINK-3900,PAYLOAD,2023-02-16 08:03:28,15.08898627,0.0001399,53.2166,25.1202,92.2857,267.8295,0.0032811,0.00052403,0.0,0 STARLINK-3900,1 52461U 22049L   23047.33575204  .00052403  00000-0  32811-2 0  9991,2 52461  53.2166  25.1202 0001399  92.2857 267.8295 15.08898627 43864,6917.701,95.434,540.534,538.598,0.0
52461.0,STARLINK-3900,PAYLOAD,2023-02-16 09:38:51,15.08904359,0.0001396,53.2166,24.8228,92.6784,267.4368,0.0033194,0.00053032,0.0,0 STARLINK-3900,1 52461U 22049L   23047.40198956  .00053032  00000-0  33194-2 0  9998,2 52461  53.2166  24.8228 0001396  92.6784 267.4368 15.08904359 43719,6917.684,95.433,540.514,538.583,0.0
52461.0,STARLINK-3900,PAYLOAD,2023-02-16 22:21:57,15.08829498,0.0001188,53.2168,22.444,112.173,247.9388,-0.00030926,-5.205e-05,0.0,0 STARLINK-3900,1 52461U 22049L   23047.93191777 -.00005205  00000-0 -30926-3 0  9992,2 52461  53.2168  22.4440 0001188 112.1730 247.9388 15.08829498 43950,6917.912,95.438,540.599,538.956,0.0
52461.0,STARLINK-3900,PAYLOAD,2023-02-17 12:40:26,15.08824736,0.0001208,53.2172,19.7677,117.1455,242.966,0.0010809,0.00016949,0.0,0 STARLINK-3900,1 52461U 22049L   23048.52808869  .00016949  00000-0  10809-2 0  9997,2 52461  53.2172  19.7677 0001208 117.1455 242.9660 15.08824736 43888,6917.927,95.439,540.628,538.956,0.0
52461.0,STARLINK-3900,PAYLOAD,2023-02-17 20:37:23,15.08815277,9.19e-05,53.2173,18.2809,113.1366,246.9723,0.00040758,6.2e-05,0.0,0 STARLINK-3900,1 52461U 22049L   23048.85929594  .00006200  00000-0  40758-3 0  9998,2 52461  53.2173  18.2809 0000919 113.1366 246.9723 15.08815277 43935,6917.956,95.439,540.457,539.185,0.0
52461.0,STARLINK-3900,PAYLOAD,2023-02-18 06:09:42,15.08834613,9.75e-05,53.2175,16.4966,108.5376,251.5722,0.0018819,0.00029785,0.0,0 STARLINK-3900,1 52461U 22049L   23049.25674081  .00029785  00000-0  18819-2 0  9996,2 52461  53.2175  16.4966 0000975 108.5376 251.5722 15.08834613 44153,6917.897,95.438,540.436,539.087,0.0
52461.0,STARLINK-3900,PAYLOAD,2023-02-18 09:20:28,15.08843176,9.74e-05,53.2175,15.9019,107.4867,252.6232,0.0021292,0.00033764,0.0,0 STARLINK-3900,1 52461U 22049L   23049.38922117  .00033764  00000-0  21292-2 0  9997,2 52461  53.2175  15.9019 0000974 107.4867 252.6232 15.08843176 44015,6917.871,95.437,540.409,539.062,0.0
52461.0,STARLINK-3900,PAYLOAD,2023-02-19 13:57:24,15.08853952,0.0001073,53.2177,10.5495,88.2119,271.8996,7.0682e-05,8.38e-06,0.0,0 STARLINK-3900,1 52461U 22049L   23050.58152894  .00000838  00000-0  70682-4 0  9993,2 52461  53.2177  10.5495 0001073  88.2119 271.8996 15.08853952 44353,6917.838,95.437,540.445,538.96,0.0
52461.0,STARLINK-3900,PAYLOAD,2023-02-20 13:48:10,15.0883758,0.0001135,53.2174,6.0891,80.6558,279.4562,0.00019889,2.879e-05,0.0,0 STARLINK-3900,1 52461U 22049L   23051.57512585  .00002879  00000-0  19889-3 0  9998,2 52461  53.2174   6.0891 0001135  80.6558 279.4562 15.08837580 44501,6917.888,95.438,540.538,538.968,0.0
52461.0,STARLINK-3900,PAYLOAD,2023-02-21 10:28:11,15.0884071,0.0001221,53.2169,2.2236,70.6128,289.4996,0.00073323,0.00011401,0.0,0 STARLINK-3900,1 52461U 22049L   23052.43624694  .00011401  00000-0  73323-3 0  9993,2 52461  53.2169   2.2236 0001221  70.6128 289.4996 15.08840710 44471,6917.878,95.438,540.588,538.899,0.0
52461.0,STARLINK-3900,PAYLOAD,2023-02-21 20:00:30,15.08855896,0.000109,53.2167,0.4395,87.7054,272.4063,0.0012258,0.00019283,0.0,0 STARLINK-3900,1 52461U 22049L   23052.83368470  .00019283  00000-0  12258-2 0  9999,2 52461  53.2167   0.4395 0001090  87.7054 272.4063 15.08855896 44698,6917.832,95.437,540.451,538.943,0.0
52461.0,STARLINK-3900,PAYLOAD,2023-02-21 21:35:53,15.08858792,0.0001095,53.2167,0.142,88.6362,271.4756,0.0013954,0.00022001,0.0,0 STARLINK-3900,1 52461U 22049L   23052.89992424  .00022001  00000-0  13954-2 0  9993,2 52461  53.2167   0.1420 0001095  88.6362 271.4756 15.08858792 44541,6917.823,95.436,540.445,538.93,0.0
52461.0,STARLINK-3900,PAYLOAD,2023-02-22 10:18:58,15.08823208,0.0001319,53.2166,357.7632,78.3047,281.8093,-0.0014192,-0.00022793,0.0,0 STARLINK-3900,1 52461U 22049L   23053.42984381 -.00022793  00000-0 -14192-2 0  9991,2 52461  53.2166 357.7632 0001319  78.3047 281.8093 15.08823208 44780,6917.932,95.439,540.709,538.884,0.0
52461.0,STARLINK-3900,PAYLOAD,2023-02-22 11:54:21,15.08826804,0.0001626,53.2165,357.4663,58.0739,302.0411,-0.00027927,-4.728e-05,0.0,0 STARLINK-3900,1 52461U 22049L   23053.49608778 -.00004728  00000-0 -27927-3 0  9990,2 52461  53.2165 357.4663 0001626  58.0739 302.0411 15.08826804 44633,6917.921,95.438,540.911,538.661,0.0
52461.0,STARLINK-3900,PAYLOAD,2023-02-22 21:26:41,15.08824898,0.0001316,53.2164,355.6822,80.3379,279.7762,0.0010154,0.00015902,0.0,0 STARLINK-3900,1 52461U 22049L   23053.89353313  .00015902  00000-0  10154-2 0  9993,2 52461  53.2164 355.6822 0001316  80.3379 279.7762 15.08824898 44699,6917.927,95.439,540.702,538.881,0.0
